[{"OBJECT_NAME":"STARLINK-3507","OBJECT_ID":"2022-016AR","EPOCH":"2026-03-09T23:17:30.433632","MEAN_MOTION":15.08830909,"ECCENTRICITY":0.00012177,"INCLINATION":53.2179,"RA_OF_ASC_NODE":307.8725,"ARG_OF_PERICENTER":98.1062,"MEAN_ANOMALY":262.0068,"EPHEMERIS_TYPE":0,"CLASSIFICATION_TYPE":"U","NORAD_CAT_ID":51753,"ELEMENT_SET_NO":999,"REV_AT_EPOCH":22374,"BSTAR":6.0979438e-5,"MEAN_MOTION_DOT":6.83e-6,"MEAN_MOTION_DDOT":0},{"OBJECT_NAME":"PRSC-S1","OBJECT_ID":"2025-164A","EPOCH":"2026-03-09T14:34:55.095168","MEAN_MOTION":15.0891951,"ECCENTRICITY":0.0004466,"INCLINATION":41.129,"RA_OF_ASC_NODE":129.3637,"ARG_OF_PERICENTER":348.3012,"MEAN_ANOMALY":11.7698,"EPHEMERIS_TYPE":0,"CLASSIFICATION_TYPE":"U","NORAD_CAT_ID":65055,"ELEMENT_SET_NO":999,"REV_AT_EPOCH":3340,"BSTAR":0.00046631,"MEAN_MOTION_DOT":7.316e-5,"MEAN_MOTION_DDOT":0}]
